ONEWEB-0365             
1 49291U 21090N   26189.87030931 -.00004121  00000+0 -10326-1 0  9996
2 49291  87.9191 300.6506 0001987  99.1802 260.9556 13.19746978229287
ONEWEB-0366             
1 49292U 21090P   26189.82498931 -.00000150  00000+0 -44036-3 0  9995
2 49292  87.8974 285.3950 0002020 100.0630 260.0728 13.14501845230403
ONEWEB-0367             
1 49293U 21090Q   26190.20838806 -.00000038  00000+0 -12588-3 0  9991
2 49293  87.9190 270.0531 0002182 103.6482 256.4895 13.20772813232738
ONEWEB-0368             
1 49294U 21090R   26190.18230055  .00000073  00000+0  14673-3 0  9995
2 49294  87.9179 270.0664 0001441 113.0920 247.0365 13.20771412233881
ONEWEB-0369             
1 49295U 21090S   26190.24465792  .00000054  00000+0  10153-3 0  9999
2 49295  87.9181 300.5809 0001922 102.7056 257.4292 13.19726556229329
ONEWEB-0370             
1 49296U 21090T   26189.76310881 -.00000019  00000+0 -77796-4 0  9993
2 49296  87.9197 270.1397 0002417 102.6879 257.4525 13.20771994232717
ONEWEB-0371             
1 49297U 21090U   26189.87346527  .00000067  00000+0  13481-3 0  9993
2 49297  87.9194 300.6484 0002087 102.5708 257.5659 13.19724641229310
ONEWEB-0372             
1 49298U 21090V   26190.20739109 -.00000015  00000+0 -68947-4 0  9998
2 49298  87.9190 270.0544 0002049 100.7614 259.3751 13.20773535232740
ONEWEB-0373             
1 49299U 21090W   26189.77825201  .00000048  00000+0  85407-4 0  9992
2 49299  87.9186 270.1398 0002084  96.8840 263.2530 13.20772897233873
ONEWEB-0374             
1 49300U 21090X   26190.26900229  .00000183  00000+0  45800-3 0  9997
2 49300  87.8978 285.2977 0001663  88.7811 271.3510 13.14502714230466
ONEWEB-0375             
1 49301U 21090Y   26189.76647009  .00000056  00000+0  10678-3 0  9999
2 49301  87.9185 270.1340 0001810  84.1682 275.9658 13.20772833233379
ONEWEB-0376             
1 49302U 21090Z   26189.87188437 -.00000002  00000+0 -38548-4 0  9997
2 49302  87.9193 300.6487 0001996 106.8324 253.3028 13.19726403229310
ONEWEB-0377             
1 49303U 21090AA  26190.20768358 -.00000002  00000+0 -36438-4 0  9999
2 49303  87.9190 270.0482 0001992  94.4830 265.6531 13.20773170233420
ONEWEB-0378             
1 49304U 21090AB  26190.15213568  .00000028  00000+0  36314-4 0  9991
2 49304  87.9186 270.0631 0001936  98.3723 261.7630 13.20771915232683
ONEWEB-0379             
1 49305U 21090AC  26190.26424924  .00000186  00000+0  46664-3 0  9997
2 49305  87.8976 285.3088 0001886 102.1027 258.0314 13.14501939230462
ONEWEB-0380             
1 49306U 21090AD  26190.24781893  .00000057  00000+0  10942-3 0  9994
2 49306  87.9182 300.5781 0002007  94.9651 265.1711 13.19726579229338
ONEWEB-0381             
1 49307U 21090AE  26189.74962373 -.00000015  00000+0 -69573-4 0  9993
2 49307  87.9204 270.1421 0001832  91.1826 268.9517 13.20773046232674
ONEWEB-0382             
1 49308U 21090AF  26190.19071490  .00000077  00000+0  15625-3 0  9990
2 49308  87.9183 270.0507 0001801  96.5034 263.6305 13.20771588232723
ONEWEB-0383             
1 49309U 21090AG  26190.25790876  .00000230  00000+0  58630-3 0  9998
2 49309  87.8994 285.2999 0001771 103.6697 256.4630 13.14502536230498
ONEWEB-0384             
1 49310U 21090AH  26190.63318613  .00000071  00000+0  14336-3 0  9995
2 49310  87.9195 270.0059 0001604  95.7312 264.4004 13.20813845232797
ONEWEB-0385             
1 49311U 21090AJ  26190.18395890 -.00000093  00000+0 -26065-3 0  9996
2 49311  87.9190 270.0569 0001929  95.1821 264.9533 13.20770338232700
ONEWEB-0386             
1 49312U 21090AK  26190.20080223  .00000034  00000+0  52460-4 0  9993
2 49312  87.9180 270.0467 0001841 103.6882 256.4456 13.20773197232720
ONEWEB-0387             
1 49313U 21090AL  26189.73109999 -.00000116  00000+0 -31639-3 0  9999
2 49313  87.9174 270.1594 0002077  91.4331 268.7040 13.20772730232661
ONEWEB-0388             
1 49314U 21090AM  26189.86399421  .00000069  00000+0  14025-3 0  9990
2 49314  87.9182 300.6525 0001825  98.7963 261.3377 13.19726759229278
ONEWEB-0389             
1 50469U 21132A   26190.75175344  .00000111  00000+0  25316-3 0  9999
2 50469  87.9135   1.3784 0001805  80.6110 279.5225 13.17650403221054
ONEWEB-0390             
1 50470U 21132B   26190.75344105  .00000108  00000+0  24483-3 0  9994
2 50470  87.9139   1.3789 0002097  90.9019 269.2352 13.17650445221054
ONEWEB-0391             
1 50471U 21132C   26190.75512866  .00000066  00000+0  13616-3 0  9995
2 50471  87.9146   1.3888 0002301  71.8974 288.2408 13.17650615221051
ONEWEB-0392             
1 50472U 21132D   26190.70957162  .00000108  00000+0  24611-3 0  9997
2 50472  87.9146   1.3679 0001878  79.0667 281.0675 13.17650936221083
ONEWEB-0393             
1 50473U 21132E   26190.76103573  .00000121  00000+0  27884-3 0  9993
2 50473  87.9135   1.3729 0001859  86.1327 274.0017 13.17647897221083
ONEWEB-0394             
1 50474U 21132F   26190.63342333  .00000033  00000+0  49894-4 0  9997
2 50474  87.9188 330.9787 0001688  94.1168 266.0157 13.18684858224559
