OBJECT_NAME,OBJECT_ID,EPOCH,MEAN_MOTION,ECCENTRICITY,INCLINATION,RA_OF_ASC_NODE,ARG_OF_PERICENTER,MEAN_ANOMALY,EPHEMERIS_TYPE,CLASSIFICATION_TYPE,NORAD_CAT_ID,ELEMENT_SET_NO,REV_AT_EPOCH,BSTAR,MEAN_MOTION_DOT,MEAN_MOTION_DDOT
ONEWEB-0365,2021-090N,2026-07-08T20:53:14.724384,13.19746978,.00019876,87.9191,300.6506,99.1802,260.9556,0,U,49291,999,22928,-.10326282E-1,-.4121E-4,0
ONEWEB-0366,2021-090P,2026-07-08T19:47:59.076384,13.14501845,.00020206,87.8974,285.3950,100.0630,260.0728,0,U,49292,999,23040,-.44035528E-3,-.15E-5,0
ONEWEB-0367,2021-090Q,2026-07-09T05:00:04.728384,13.20772813,.00021822,87.9190,270.0531,103.6482,256.4895,0,U,49293,999,23273,-.12587791E-3,-.38E-6,0
ONEWEB-0368,2021-090R,2026-07-09T04:22:30.767520,13.20771412,.00014415,87.9179,270.0664,113.0920,247.0365,0,U,49294,999,23388,.14672721E-3,.73E-6,0
ONEWEB-0369,2021-090S,2026-07-09T05:52:18.444288,13.19726556,.00019225,87.9181,300.5809,102.7056,257.4292,0,U,49295,999,22932,.10152647E-3,.54E-6,0
ONEWEB-0370,2021-090T,2026-07-08T18:18:52.601184,13.20771994,.00024173,87.9197,270.1397,102.6879,257.4525,0,U,49296,999,23271,-.77796123E-4,-.19E-6,0
ONEWEB-0371,2021-090U,2026-07-08T20:57:47.399328,13.19724641,.00020872,87.9194,300.6484,102.5708,257.5659,0,U,49297,999,22931,.13480886E-3,.67E-6,0
ONEWEB-0372,2021-090V,2026-07-09T04:58:38.590176,13.20773535,.00020493,87.9190,270.0544,100.7614,259.3751,0,U,49298,999,23274,-.68947347E-4,-.15E-6,0
ONEWEB-0373,2021-090W,2026-07-08T18:40:40.973664,13.20772897,.00020849,87.9186,270.1398,96.8840,263.2530,0,U,49299,999,23387,.85406941E-4,.48E-6,0
ONEWEB-0374,2021-090X,2026-07-09T06:27:21.797856,13.14502714,.00016638,87.8978,285.2977,88.7811,271.3510,0,U,49300,999,23046,.45799927E-3,.183E-5,0
ONEWEB-0375,2021-090Y,2026-07-08T18:23:43.015776,13.20772833,.00018109,87.9185,270.1340,84.1682,275.9658,0,U,49301,999,23337,.10678037E-3,.56E-6,0
ONEWEB-0376,2021-090Z,2026-07-08T20:55:30.809568,13.19726403,.00019962,87.9193,300.6487,106.8324,253.3028,0,U,49302,999,22931,-.38547925E-4,-.2E-7,0
ONEWEB-0377,2021-090AA,2026-07-09T04:59:03.861312,13.20773170,.00019926,87.9190,270.0482,94.4830,265.6531,0,U,49303,999,23342,-.36438011E-4,-.2E-7,0
ONEWEB-0378,2021-090AB,2026-07-09T03:39:04.522752,13.20771915,.00019366,87.9186,270.0631,98.3723,261.7630,0,U,49304,999,23268,.3631387E-4,.28E-6,0
ONEWEB-0379,2021-090AC,2026-07-09T06:20:31.134336,13.14501939,.00018869,87.8976,285.3088,102.1027,258.0314,0,U,49305,999,23046,.46664491E-3,.186E-5,0
ONEWEB-0380,2021-090AD,2026-07-09T05:56:51.555552,13.19726579,.00020071,87.9182,300.5781,94.9651,265.1711,0,U,49306,999,22933,.10941954E-3,.57E-6,0
ONEWEB-0381,2021-090AE,2026-07-08T17:59:27.490272,13.20773046,.00018324,87.9204,270.1421,91.1826,268.9517,0,U,49307,999,23267,-.69572962E-4,-.15E-6,0
ONEWEB-0382,2021-090AF,2026-07-09T04:34:37.767360,13.20771588,.00018017,87.9183,270.0507,96.5034,263.6305,0,U,49308,999,23272,.15625007E-3,.77E-6,0
ONEWEB-0383,2021-090AG,2026-07-09T06:11:23.316864,13.14502536,.00017719,87.8994,285.2999,103.6697,256.4630,0,U,49309,999,23049,.58630408E-3,.23E-5,0
ONEWEB-0384,2021-090AH,2026-07-09T15:11:47.281632,13.20813845,.0001604,87.9195,270.0059,95.7312,264.4004,0,U,49310,999,23279,.14336E-3,.71E-6,0
ONEWEB-0385,2021-090AJ,2026-07-09T04:24:54.048960,13.20770338,.00019291,87.9190,270.0569,95.1821,264.9533,0,U,49311,999,23270,-.26064854E-3,-.93E-6,0
ONEWEB-0386,2021-090AK,2026-07-09T04:49:09.312672,13.20773197,.00018416,87.9180,270.0467,103.6882,256.4456,0,U,49312,999,23272,.52459873E-4,.34E-6,0
ONEWEB-0387,2021-090AL,2026-07-08T17:32:47.039136,13.20772730,.00020775,87.9174,270.1594,91.4331,268.7040,0,U,49313,999,23266,-.31639176E-3,-.116E-5,0
ONEWEB-0388,2021-090AM,2026-07-08T20:44:09.099744,13.19726759,.00018254,87.9182,300.6525,98.7963,261.3377,0,U,49314,999,22927,.14024626E-3,.69E-6,0
ONEWEB-0389,2021-132A,2026-07-09T18:02:31.497216,13.17650403,.0001805,87.9135,1.3784,80.6110,279.5225,0,U,50469,999,22105,.25316E-3,.111E-5,0
ONEWEB-0390,2021-132B,2026-07-09T18:04:57.306720,13.17650445,.0002097,87.9139,1.3789,90.9019,269.2352,0,U,50470,999,22105,.24483E-3,.108E-5,0
ONEWEB-0391,2021-132C,2026-07-09T18:07:23.116224,13.17650615,.0002301,87.9146,1.3888,71.8974,288.2408,0,U,50471,999,22105,.13616E-3,.66E-6,0
ONEWEB-0392,2021-132D,2026-07-09T17:01:46.987968,13.17650936,.0001878,87.9146,1.3679,79.0667,281.0675,0,U,50472,999,22108,.24611E-3,.108E-5,0
ONEWEB-0393,2021-132E,2026-07-09T18:15:53.487072,13.17647897,.0001859,87.9135,1.3729,86.1327,274.0017,0,U,50473,999,22108,.27884E-3,.121E-5,0
ONEWEB-0394,2021-132F,2026-07-09T15:12:07.775712,13.18684858,.0001688,87.9188,330.9787,94.1168,266.0157,0,U,50474,999,22455,.49894E-4,.33E-6,0
